[
    {
        "Altitude(m)": 622205.832433996,
        "Argument of Periapsis(deg)": 0.0,
        "Eccentricity": 0.0,
        "Inclination(deg)": 60.0,
        "Latitude(deg)": -52.16233865880862,
        "Longitude(deg)": 122.70035109125209,
        "Mean Anomaly(deg)": -114.54550000000008,
        "RAAN(deg)": 355.0,
        "Satellite Name": "Test1 1577",
        "Satellite Number": 1577,
        "Semi-Major Axis(m)": 6980739.136638005,
        "Time(s)": 0
    },
    {
        "Altitude(m)": 622344.7392589429,
        "Argument of Periapsis(deg)": 0.00010418945913296404,
        "Eccentricity": 0.0,
        "Inclination(deg)": 60.0,
        "Latitude(deg)": -52.51991873067101,
        "Longitude(deg)": 123.48156118520255,
        "Mean Anomaly(deg)": -113.9253938545382,
        "RAAN(deg)": 354.99957995086027,
        "Satellite Name": "Test1 1577",
        "Satellite Number": 1577,
        "Semi-Major Axis(m)": 6980739.136638005,
        "Time(s)": 10
    }
]